ONEWEB-0435             
1 51632U 22012L   24356.37011961 -.00000723  00000+0 -21065-2 0  9991
2 51632  87.8898 144.4001 0001029  89.0936 271.0309 13.10373195139501
ONEWEB-0436             
1 51633U 22012M   24355.81297834  .00000002  00000+0 -27265-4 0  9994
2 51633  87.9098 114.1009 0001357 107.8801 252.2478 13.17651871143411
ONEWEB-0438             
1 51634U 22012N   24356.35354076 -.00000022  00000+0 -98125-4 0  9993
2 51634  87.8897 144.4039 0001678  94.5269 265.6050 13.10371005139547
ONEWEB-0439             
1 51635U 22012P   24355.66962442 -.00000340  00000+0 -10104-2 0  9991
2 51635  87.8896 144.5257 0001438  96.1170 264.0122 13.10368964138141
ONEWEB-0442             
1 51636U 22012Q   24355.80539483 -.00000046  00000+0 -15086-3 0  9991
2 51636  87.9102 114.1437 0002330 104.3269 255.8122 13.17646968142119
ONEWEB-0443             
1 51637U 22012R   24355.90073468 -.00000029  00000+0 -10706-3 0  9994
2 51637  87.9105 114.1360 0001748  91.2034 268.9298 13.17647621143469
ONEWEB-0444             
1 51638U 22012S   24355.88875350  .00000172  00000+0  45521-3 0  9992
2 51638  87.8892 144.4945 0001338  93.2827 266.8454 13.10369351138182
ONEWEB-0445             
1 51639U 22012T   24356.36846145 -.00000687  00000+0 -20036-2 0  9993
2 51639  87.8888 144.3629 0001652 102.5031 257.6282 13.10372473139532
